line1,line2,classification,launch_year,launch_number,launch_piece,epoch_year,epoch_day,mean_motion_dot,mean_motion_ddot,bstar,ephemeris_type,element_number,satellite_number,inclination,ra_of_asc_node,eccentricity,arg_of_perigee,mean_anomaly,mean_motion,rev_at_epoch,datetime,x,y,z,cartesian_cords,NORAD_CAT_ID,OBJECT_TYPE,SATNAME,SITE,Operator/Owner,Users,Purpose,anom_inclination,anom_ra_of_asc_node,anom_eccentricity,anom_arg_of_perigee,anom_mean_anomaly,anom_mean_motion,anom_count
1 00829U 64038A   21248.61733555  .00000077  00000-0  35542-4 0  9999,2 00829  60.8216  83.0989 2978157 244.3258  82.1902  9.14253429855276,U,64,038,A,21,248.61733555,7.7e-07,0.0,0.0,0,999,829,60.8216,83.0989,0.2978157,244.3258,82.1902,9.14253429,85527,2021-09-05 14:48:57.791520,1263.9491644859493,10034.925155467306,-2.7971915976588337,[ 1.26394916e+03  1.00349252e+04 -2.79719160e+00],829,PAYLOAD,ELEKTRON 3,TTMTR,0,0,0,0.0,0.0,0.0,0.0,0.0,0.0,0.0
1 00829U 64038A   21248.50796692  .00000083  00000-0  36954-4 0  9993,2 00829  60.8216  83.2486 2978151 244.2966  82.2239  9.14253375855262,U,64,038,A,21,248.50796692,8.3e-07,0.0,0.0,0,999,829,60.8216,83.2486,0.2978151,244.2966,82.2239,9.14253375,85526,2021-09-05 12:11:28.341888,1237.9122429448885,10039.776352282348,-2.727855287832671,[ 1.23791224e+03  1.00397764e+04 -2.72785529e+00],829,PAYLOAD,ELEKTRON 3,TTMTR,0,0,0,0.0,0.0,0.0,0.0,0.0,0.0,0.0
1 00829U 64038A   21247.85175462  .00000119  00000-0  46327-4 0  9991,2 00829  60.8217  84.1463 2978140 244.1221  82.4245  9.14253086855201,U,64,038,A,21,247.85175462,1.19e-06,0.0,0.0,0,999,829,60.8217,84.1463,0.297814,244.1221,82.4245,9.14253086,85520,2021-09-04 20:26:31.599168,1081.4777760036004,10067.375053847863,-2.405439681994488,[ 1.08147778e+03  1.00673751e+04 -2.40543968e+00],829,PAYLOAD,ELEKTRON 3,TTMTR,0,0,0,0.0,0.0,0.0,0.0,0.0,0.0,0.0
1 00829U 64038A   21247.52364867  .00000136  00000-0  51011-4 0  9999,2 00829  60.8216  84.5952 2978122 244.0347  82.5253  9.14252903855178,U,64,038,A,21,247.52364867,1.36e-06,0.0,0.0,0,999,829,60.8216,84.5952,0.2978122,244.0347,82.5253,9.14252903,85517,2021-09-04 12:34:03.245088,1003.0377809751936,10080.274551675158,-2.2393339785931845,[ 1.00303778e+03  1.00802746e+04 -2.23933398e+00],829,PAYLOAD,ELEKTRON 3,TTMTR,0,0,0,0.0,0.0,0.0,0.0,0.0,0.0,0.0
1 00829U 64038A   21246.86743625  .00000175  00000-0  61159-4 0  9995,2 00829  60.8217  85.4928 2978121 243.8602  82.7264  9.14252566855115,U,64,038,A,21,246.86743625,1.75e-06,0.0,0.0,0,999,829,60.8217,85.4928,0.2978121,243.8602,82.7264,9.14252566,85511,2021-09-03 20:49:06.492000,845.7897063953251,10104.215376930306,-1.9079756511231574,[ 8.45789706e+02  1.01042154e+04 -1.90797565e+00],829,PAYLOAD,ELEKTRON 3,TTMTR,0,0,0,0.0,0.0,0.0,0.0,0.0,0.0,0.0
1 00829U 64038A   21246.53933007  .00000198  00000-0  67262-4 0  9990,2 00829  60.8216  85.9417 2978113 243.7727  82.8274  9.14252417855083,U,64,038,A,21,246.53933007,1.98e-06,0.0,0.0,0,999,829,60.8216,85.9417,0.2978113,243.7727,82.8274,9.14252417,85508,2021-09-03 12:56:38.118048,766.9628280381357,10115.279152568011,-1.75152988196418,[ 7.66962828e+02  1.01152792e+04 -1.75152988e+00],829,PAYLOAD,ELEKTRON 3,TTMTR,0,0,0,0.0,0.0,0.0,0.0,0.0,0.0,0.0
1 00829U 64038A   21245.88311741  .00000240  00000-0  78135-4 0  9991,2 00829  60.8217  86.8394 2978107 243.5981  83.0292  9.14252097855022,U,64,038,A,21,245.88311741,2.4e-06,0.0,0.0,0,999,829,60.8217,86.8394,0.2978107,243.5981,83.0292,9.14252097,85502,2021-09-02 21:11:41.344224,608.9587948877163,10135.543441754055,-1.4248072457041006,[ 6.08958795e+02  1.01355434e+04 -1.42480725e+00],829,PAYLOAD,ELEKTRON 3,TTMTR,0,0,0,0.0,0.0,0.0,0.0,0.0,0.0,0.0
1 00829U 64038A   21245.55501100  .00000260  00000-0  83434-4 0  9995,2 00829  60.8217  87.2883 2978101 243.5106  83.1306  9.14251970854994,U,64,038,A,21,245.555011,2.6e-06,0.0,0.0,0,999,829,60.8217,87.2883,0.2978101,243.5106,83.1306,9.1425197,85499,2021-09-02 13:19:12.950400,529.7720141423847,10144.767235216605,-1.248970952913291,[ 5.29772014e+02  1.01447672e+04 -1.24897095e+00],829,PAYLOAD,ELEKTRON 3,TTMTR,0,0,0,0.0,0.0,0.0,0.0,0.0,0.0,0.0
1 00829U 64038A   21244.46132236  .00000291  00000-0  91595-4 0  9995,2 00829  60.8218  88.7844 2978094 243.2194  83.4683  9.14251436854890,U,64,038,A,21,244.46132236,2.91e-06,0.0,0.0,0,999,829,60.8218,88.7844,0.2978094,243.2194,83.4683,9.14251436,85489,2021-09-01 11:04:18.251904,265.13138890623014,10171.001062158028,-0.7009418050968642,[ 2.65131389e+02  1.01710011e+04 -7.00941805e-01],829,PAYLOAD,ELEKTRON 3,TTMTR,0,0,0,0.0,0.0,0.0,0.0,0.0,0.0,0.0
1 00829U 64038A   21243.47700153  .00000275  00000-0  87425-4 0  9993,2 00829  60.8219  90.1310 2978089 242.9573  83.7731  9.14251018854801,U,64,038,A,21,243.47700153,2.75e-06,0.0,0.0,0,999,829,60.8219,90.131,0.2978089,242.9573,83.7731,9.14251018,85480,2021-08-31 11:26:52.932192,26.070447591487298,10188.707763414264,-0.21223940367097816,[ 2.60704476e+01  1.01887078e+04 -2.12239404e-01],829,PAYLOAD,ELEKTRON 3,TTMTR,0,0,0,0.0,0.0,0.0,0.0,0.0,0.0,0.0
1 00829U 64038A   21242.93015638  .00000254  00000-0  82021-4 0  9994,2 00829  60.8219  90.8791 2978084 242.8121  83.9425  9.14250792854758,U,64,038,A,21,242.93015638,2.54e-06,0.0,0.0,0,999,829,60.8219,90.8791,0.2978084,242.8121,83.9425,9.14250792,85475,2021-08-30 22:19:25.511232,-107.0550126062935,10196.102893784875,0.07953602420383585,[-1.07055013e+02  1.01961029e+04  7.95360242e-02],829,PAYLOAD,ELEKTRON 3,TTMTR,0,0,0,0.0,0.0,0.0,0.0,0.0,0.0,0.0
1 00829U 64038A   21242.60204879  .00000290  00000-0  91385-4 0  9998,2 00829  60.8220  91.3279 2978079 242.7246  84.0446  9.14251059854727,U,64,038,A,21,242.60204879,2.9e-06,0.0,0.0,0,999,829,60.822,91.3279,0.2978079,242.7246,84.0446,9.14251059,85472,2021-08-30 14:26:57.015456,-187.00194617467767,10199.71774205084,0.2368489146140837,[-1.87001946e+02  1.01997177e+04  2.36848915e-01],829,PAYLOAD,ELEKTRON 3,TTMTR,0,0,0,0.0,0.0,0.0,0.0,0.0,0.0,0.0
1   829U 64038A   21242.27394171  .00000263  00000-0  84163-4 0  9992,2   829  60.8220  91.7768 2978072 242.6374  84.1465  9.14250875854679,U,64,038,A,21,242.27394171,2.63e-06,0.0,0.0,0,999,829,60.822,91.7768,0.2978072,242.6374,84.1465,9.14250875,85467,2021-08-30 06:34:28.563744,-267.0318146045267,10202.694220590769,0.3982465440410553,[-2.67031815e+02  1.02026942e+04  3.98246544e-01],829,PAYLOAD,ELEKTRON 3,TTMTR,0,0,0,0.0,0.0,0.0,0.0,0.0,0.0,0.0
1 00829U 64038A   21241.72709638  .00000232  00000-0  76039-4 0  9998,2 00829  60.8220  92.5249 2978068 242.4918  84.3168  9.14250734854642,U,64,038,A,21,241.72709638,2.32e-06,0.0,0.0,0,999,829,60.822,92.5249,0.2978068,242.4918,84.3168,9.14250734,85464,2021-08-29 17:27:01.127232,-400.5331753260338,10206.274573324401,0.67242130140737,[-4.00533175e+02  1.02062746e+04  6.72421301e-01],829,PAYLOAD,ELEKTRON 3,TTMTR,0,0,0,0.0,0.0,0.0,0.0,0.0,0.0,0.0
1 00829U 64038A   21241.28962029  .00000186  00000-0  64159-4 0  9992,2 00829  60.8220  93.1233 2978057 242.3755  84.4532  9.14250477854604,U,64,038,A,21,241.28962029,1.86e-06,0.0,0.0,0,999,829,60.822,93.1233,0.2978057,242.3755,84.4532,9.14250477,85460,2021-08-29 06:57:03.193056,-507.4272301113967,10207.878102197643,0.9030306563655436,[-5.07427230e+02  1.02078781e+04  9.03030656e-01],829,PAYLOAD,ELEKTRON 3,TTMTR,0,0,0,0.0,0.0,0.0,0.0,0.0,0.0,0.0
1 00829U 64038A   21240.74277522  .00000118  00000-0  46350-4 0  9997,2 00829  60.8220  93.8714 2978057 242.2299  84.6240  9.14250121854555,U,64,038,A,21,240.74277522,1.18e-06,0.0,0.0,0,999,829,60.822,93.8714,0.2978057,242.2299,84.624,9.14250121,85455,2021-08-28 17:49:35.779008,-641.1678679094251,10208.316963975078,1.1869285686271343,[-6.41167868e+02  1.02083170e+04  1.18692857e+00],829,PAYLOAD,ELEKTRON 3,TTMTR,0,0,0,0.0,0.0,0.0,0.0,0.0,0.0,0.0
1 00829U 64038A   21240.30529892  .00000066  00000-0  32585-4 0  9996,2 00829  60.8220  94.4698 2978049 242.1135  84.7607  9.14249885854511,U,64,038,A,21,240.30529892,6.6e-07,0.0,0.0,0,999,829,60.822,94.4698,0.2978049,242.1135,84.7607,9.14249885,85451,2021-08-28 07:19:37.826688,-748.2071681038353,10207.398604835662,1.396338496297295,[-7.48207168e+02  1.02073986e+04  1.39633850e+00],829,PAYLOAD,ELEKTRON 3,TTMTR,0,0,0,0.0,0.0,0.0,0.0,0.0,0.0,0.0
1 00829U 64038A   21239.32097758 -.00000070  00000-0 -32264-5 0  9999,2 00829  60.8219  95.8163 2978027 241.8516  85.0692  9.14249200854425,U,64,038,A,21,239.32097758,-7e-07,0.0,-3.2264e-06,0,999,829,60.8219,95.8163,0.2978027,241.8516,85.0692,9.142492,85442,2021-08-27 07:42:12.462912,-989.2513686001593,10201.23798550256,1.9022620431286155,[-9.89251369e+02  1.02012380e+04  1.90226204e+00],829,PAYLOAD,ELEKTRON 3,TTMTR,0,0,0,0.0,0.0,0.0,0.0,0.0,0.0,0.0
1 00829U 64038A   21238.00854955 -.00000079  00000-0 -54460-5 0  9994,2 00829  60.8219  97.6115 2977982 241.5020  85.4824  9.14249019854304,U,64,038,A,21,238.00854955,-7.9e-07,0.0,-5.446e-06,0,999,829,60.8219,97.6115,0.2977982,241.502,85.4824,9.14249019,85430,2021-08-26 00:12:18.681120,-1310.7803141872928,10184.179748277296,2.5601535223554137,[-1.31078031e+03  1.01841797e+04  2.56015352e+00],829,PAYLOAD,ELEKTRON 3,TTMTR,0,0,0,0.0,0.0,0.0,0.0,0.0,0.0,0.0
1   829U 64038A   21237.78981170 -.00000073  00000-0 -39793-5 0  9994,2   829  60.8219  97.9108 2977974 241.4437  85.5515  9.14248975854264,U,64,038,A,21,237.7898117,-7.3e-07,0.0,-3.9793e-06,0,999,829,60.8219,97.9108,0.2977974,241.4437,85.5515,9.14248975,85426,2021-08-25 18:57:19.730880,-1364.388593301875,10180.351979796349,2.67514012874142,[-1.36438859e+03  1.01803520e+04  2.67514013e+00],829,PAYLOAD,ELEKTRON 3,TTMTR,0,0,0,0.0,0.0,0.0,0.0,0.0,0.0,0.0
1 00829U 64038A   21237.02422930 -.00000065  00000-0 -18091-5 0  9994,2 00829  60.8218  98.9580 2977944 241.2398  85.7934  9.14248688854212,U,64,038,A,21,237.0242293,-6.5e-07,0.0,-1.8091e-06,0,999,829,60.8218,98.958,0.2977944,241.2398,85.7934,9.14248688,85421,2021-08-25 00:34:53.411520,-1551.9007574501745,10164.730956502824,3.059874507476005,[-1.55190076e+03  1.01647310e+04  3.05987451e+00],829,PAYLOAD,ELEKTRON 3,TTMTR,0,0,0,0.0,0.0,0.0,0.0,0.0,0.0,0.0
